FALCONSAT-6             
1 43815U 18099BK  26068.72544389  .00005029  00000+0  19477-3 0  9998
2 43815  97.3865 145.8165 0014370 297.0944 181.0714 15.26532865398556
STARLINK-30587          
1 58064U 23158P   26068.30103570 -.00001058  00000+0 -28926-4 0  9999
2 58064  43.0018  28.9739 0000601 248.2476 111.8312 15.27574217133510
